CCSDS_OMM_VERS = 2.0
CREATION_DATE  = 
ORIGINATOR     = 

OBJECT_NAME    = ATLAS CENTAUR 2
OBJECT_ID      = 1963-047A
CENTER_NAME    = EARTH
REF_FRAME      = TEME
TIME_SYSTEM    = UTC
MEAN_ELEMENT_THEORY = SGP/SGP4

EPOCH          = 2026-02-28T20:24:59.677344
MEAN_MOTION    = 14.12037011
ECCENTRICITY   = .0547901
INCLINATION    = 30.3533
RA_OF_ASC_NODE = 245.0413
ARG_OF_PERICENTER = 2.3875
MEAN_ANOMALY   = 357.9181

EPHEMERIS_TYPE = 0
CLASSIFICATION_TYPE = U
NORAD_CAT_ID   = 694
ELEMENT_SET_NO = 999
REV_AT_EPOCH   = 13037
BSTAR          = .1674E-3
MEAN_MOTION_DOT = .146E-4
MEAN_MOTION_DDOT = 0

CCSDS_OMM_VERS = 2.0
CREATION_DATE  = 
ORIGINATOR     = 

OBJECT_NAME    = THOR AGENA D R/B
OBJECT_ID      = 1964-002A
CENTER_NAME    = EARTH
REF_FRAME      = TEME
TIME_SYSTEM    = UTC
MEAN_ELEMENT_THEORY = SGP/SGP4

EPOCH          = 2026-03-01T00:14:06.102240
MEAN_MOTION    = 14.34014067
ECCENTRICITY   = .00319112
INCLINATION    = 99.1228
RA_OF_ASC_NODE = 72.8743
ARG_OF_PERICENTER = 284.1969
MEAN_ANOMALY   = 75.5670

EPHEMERIS_TYPE = 0
CLASSIFICATION_TYPE = U
NORAD_CAT_ID   = 733
ELEMENT_SET_NO = 999
REV_AT_EPOCH   = 23705
BSTAR          = .10890009E-3
MEAN_MOTION_DOT = .257E-5
MEAN_MOTION_DDOT = 0

CCSDS_OMM_VERS = 2.0
CREATION_DATE  = 
ORIGINATOR     = 

OBJECT_NAME    = SL-3 R/B
OBJECT_ID      = 1964-053B
CENTER_NAME    = EARTH
REF_FRAME      = TEME
TIME_SYSTEM    = UTC
MEAN_ELEMENT_THEORY = SGP/SGP4

EPOCH          = 2026-03-01T04:56:42.307872
MEAN_MOTION    = 14.61358693
ECCENTRICITY   = .00793772
INCLINATION    = 65.0786
RA_OF_ASC_NODE = 356.1078
ARG_OF_PERICENTER = 294.9165
MEAN_ANOMALY   = 64.3701

EPHEMERIS_TYPE = 0
CLASSIFICATION_TYPE = U
NORAD_CAT_ID   = 877
ELEMENT_SET_NO = 999
REV_AT_EPOCH   = 26555
BSTAR          = .10958862E-3
MEAN_MOTION_DOT = .442E-5
MEAN_MOTION_DDOT = 0

CCSDS_OMM_VERS = 2.0
CREATION_DATE  = 
ORIGINATOR     = 

OBJECT_NAME    = SL-8 R/B
OBJECT_ID      = 1967-045B
CENTER_NAME    = EARTH
REF_FRAME      = TEME
TIME_SYSTEM    = UTC
MEAN_ELEMENT_THEORY = SGP/SGP4

EPOCH          = 2026-03-01T06:29:53.504160
MEAN_MOTION    = 14.45612899
ECCENTRICITY   = .00638506
INCLINATION    = 74.0133
RA_OF_ASC_NODE = 3.8100
ARG_OF_PERICENTER = 12.0968
MEAN_ANOMALY   = 348.1705

EPHEMERIS_TYPE = 0
CLASSIFICATION_TYPE = U
NORAD_CAT_ID   = 2802
ELEMENT_SET_NO = 999
REV_AT_EPOCH   = 8780
BSTAR          = .15904478E-3
MEAN_MOTION_DOT = .548E-5
MEAN_MOTION_DDOT = 0

CCSDS_OMM_VERS = 2.0
CREATION_DATE  = 
ORIGINATOR     = 

OBJECT_NAME    = SL-8 R/B
OBJECT_ID      = 1968-040B
CENTER_NAME    = EARTH
REF_FRAME      = TEME
TIME_SYSTEM    = UTC
MEAN_ELEMENT_THEORY = SGP/SGP4

EPOCH          = 2026-03-01T04:35:01.314816
MEAN_MOTION    = 15.03187669
ECCENTRICITY   = .00242939
INCLINATION    = 74.0335
RA_OF_ASC_NODE = 331.0578
ARG_OF_PERICENTER = 157.6687
MEAN_ANOMALY   = 202.5566

EPHEMERIS_TYPE = 0
CLASSIFICATION_TYPE = U
NORAD_CAT_ID   = 3230
ELEMENT_SET_NO = 999
REV_AT_EPOCH   = 8873
BSTAR          = .24997891E-3
MEAN_MOTION_DOT = .3361E-4
MEAN_MOTION_DDOT = 0

CCSDS_OMM_VERS = 2.0
CREATION_DATE  = 
ORIGINATOR     = 

OBJECT_NAME    = OAO 2
OBJECT_ID      = 1968-110A
CENTER_NAME    = EARTH
REF_FRAME      = TEME
TIME_SYSTEM    = UTC
MEAN_ELEMENT_THEORY = SGP/SGP4

EPOCH          = 2026-02-28T17:53:48.385824
MEAN_MOTION    = 14.47301331
ECCENTRICITY   = .0005015
INCLINATION    = 34.9940
RA_OF_ASC_NODE = 315.1605
ARG_OF_PERICENTER = 131.5796
MEAN_ANOMALY   = 228.5326

EPHEMERIS_TYPE = 0
CLASSIFICATION_TYPE = U
NORAD_CAT_ID   = 3597
ELEMENT_SET_NO = 999
REV_AT_EPOCH   = 1780
BSTAR          = .85555098E-4
MEAN_MOTION_DOT = .298E-5
MEAN_MOTION_DDOT = 0

CCSDS_OMM_VERS = 2.0
CREATION_DATE  = 
ORIGINATOR     = 

OBJECT_NAME    = ISIS 1
OBJECT_ID      = 1969-009A
CENTER_NAME    = EARTH
REF_FRAME      = TEME
TIME_SYSTEM    = UTC
MEAN_ELEMENT_THEORY = SGP/SGP4

EPOCH          = 2026-03-01T07:28:52.296096
MEAN_MOTION    = 11.30411103
ECCENTRICITY   = .17078355
INCLINATION    = 88.4551
RA_OF_ASC_NODE = 156.2218
ARG_OF_PERICENTER = 106.0638
MEAN_ANOMALY   = 273.4527

EPHEMERIS_TYPE = 0
CLASSIFICATION_TYPE = U
NORAD_CAT_ID   = 3669
ELEMENT_SET_NO = 999
REV_AT_EPOCH   = 34758
BSTAR          = .11290214E-3
MEAN_MOTION_DOT = .182E-5
MEAN_MOTION_DDOT = 0

CCSDS_OMM_VERS = 2.0
CREATION_DATE  = 
ORIGINATOR     = 

OBJECT_NAME    = SERT 2
OBJECT_ID      = 1970-009A
CENTER_NAME    = EARTH
REF_FRAME      = TEME
TIME_SYSTEM    = UTC
MEAN_ELEMENT_THEORY = SGP/SGP4

EPOCH          = 2026-03-01T07:33:49.989024
MEAN_MOTION    = 13.58729024
ECCENTRICITY   = .00047231
INCLINATION    = 99.2747
RA_OF_ASC_NODE = 3.8675
ARG_OF_PERICENTER = 176.3321
MEAN_ANOMALY   = 299.6689

EPHEMERIS_TYPE = 0
CLASSIFICATION_TYPE = U
NORAD_CAT_ID   = 4327
ELEMENT_SET_NO = 999
REV_AT_EPOCH   = 77875
BSTAR          = .56338616E-4
MEAN_MOTION_DOT = 0
MEAN_MOTION_DDOT = 0

CCSDS_OMM_VERS = 2.0
CREATION_DATE  = 
ORIGINATOR     = 

OBJECT_NAME    = SL-3 R/B
OBJECT_ID      = 1971-028B
CENTER_NAME    = EARTH
REF_FRAME      = TEME
TIME_SYSTEM    = UTC
MEAN_ELEMENT_THEORY = SGP/SGP4

EPOCH          = 2026-03-01T06:10:32.918880
MEAN_MOTION    = 15.60308676
ECCENTRICITY   = .00145241
INCLINATION    = 81.2331
RA_OF_ASC_NODE = 62.4389
ARG_OF_PERICENTER = 321.4084
MEAN_ANOMALY   = 38.6130

EPHEMERIS_TYPE = 0
CLASSIFICATION_TYPE = U
NORAD_CAT_ID   = 5118
ELEMENT_SET_NO = 999
REV_AT_EPOCH   = 98735
BSTAR          = .53920302E-3
MEAN_MOTION_DOT = .44475E-3
MEAN_MOTION_DDOT = 0

CCSDS_OMM_VERS = 2.0
CREATION_DATE  = 
ORIGINATOR     = 

OBJECT_NAME    = ASTEX 1
OBJECT_ID      = 1971-089A
CENTER_NAME    = EARTH
REF_FRAME      = TEME
TIME_SYSTEM    = UTC
MEAN_ELEMENT_THEORY = SGP/SGP4

EPOCH          = 2026-03-01T06:28:08.106528
MEAN_MOTION    = 14.50759130
ECCENTRICITY   = .00178008
INCLINATION    = 92.7133
RA_OF_ASC_NODE = 149.0366
ARG_OF_PERICENTER = 110.6782
MEAN_ANOMALY   = 249.6335

EPHEMERIS_TYPE = 0
CLASSIFICATION_TYPE = U
NORAD_CAT_ID   = 5560
ELEMENT_SET_NO = 999
REV_AT_EPOCH   = 86108
BSTAR          = .15773173E-3
MEAN_MOTION_DOT = .621E-5
MEAN_MOTION_DDOT = 0

CCSDS_OMM_VERS = 2.0
CREATION_DATE  = 
ORIGINATOR     = 

OBJECT_NAME    = SL-8 R/B
OBJECT_ID      = 1971-119B
CENTER_NAME    = EARTH
REF_FRAME      = TEME
TIME_SYSTEM    = UTC
MEAN_ELEMENT_THEORY = SGP/SGP4

EPOCH          = 2026-02-28T21:21:10.632096
MEAN_MOTION    = 14.37570169
ECCENTRICITY   = .0550482
INCLINATION    = 73.8864
RA_OF_ASC_NODE = 192.1626
ARG_OF_PERICENTER = 160.6298
MEAN_ANOMALY   = 201.6722

EPHEMERIS_TYPE = 0
CLASSIFICATION_TYPE = U
NORAD_CAT_ID   = 5730
ELEMENT_SET_NO = 999
REV_AT_EPOCH   = 65422
BSTAR          = .84945E-3
MEAN_MOTION_DOT = .16367E-3
MEAN_MOTION_DDOT = 0

CCSDS_OMM_VERS = 2.0
CREATION_DATE  = 
ORIGINATOR     = 

OBJECT_NAME    = OAO 3 (COPERNICUS)
OBJECT_ID      = 1972-065A
CENTER_NAME    = EARTH
REF_FRAME      = TEME
TIME_SYSTEM    = UTC
MEAN_ELEMENT_THEORY = SGP/SGP4

EPOCH          = 2026-02-28T12:34:16.491072
MEAN_MOTION    = 14.59988773
ECCENTRICITY   = .0005909
INCLINATION    = 35.0070
RA_OF_ASC_NODE = 349.5364
ARG_OF_PERICENTER = 85.9707
MEAN_ANOMALY   = 80.3895

EPHEMERIS_TYPE = 0
CLASSIFICATION_TYPE = U
NORAD_CAT_ID   = 6153
ELEMENT_SET_NO = 999
REV_AT_EPOCH   = 84485
BSTAR          = .91687584E-4
MEAN_MOTION_DOT = .425E-5
MEAN_MOTION_DDOT = 0

