ATLAS CENTAUR 2         
1 00694U 63047A   26059.85069071  .00001460  00000+0  16740-3 0  9998
2 00694  30.3533 245.0413 0547901   2.3875 357.9181 14.12037011130376
THOR AGENA D R/B        
1 00733U 64002A   26060.00979285  .00000257  00000+0  10890-3 0  9993
2 00733  99.1228  72.8743 0031911 284.1969  75.5670 14.34014067237058
SL-3 R/B                
1 00877U 64053B   26060.20604523  .00000442  00000+0  10959-3 0  9992
2 00877  65.0786 356.1078 0079377 294.9165  64.3701 14.61358693265555
SL-8 R/B                
1 02802U 67045B   26060.27075815  .00000548  00000+0  15904-3 0  9991
2 02802  74.0133   3.8100 0063850  12.0968 348.1705 14.45612899 87802
SL-8 R/B                
1 03230U 68040B   26060.19098744  .00003361  00000+0  24998-3 0  9999
2 03230  74.0335 331.0578 0024293 157.6687 202.5566 15.03187669 88737
OAO 2                   
1 03597U 68110A   26059.74569891  .00000298  00000+0  85555-4 0  9991
2 03597  34.9940 315.1605 0005015 131.5796 228.5326 14.47301331 17800
ISIS 1                  
1 03669U 69009A   26060.31171639  .00000182  00000+0  11290-3 0  9999
2 03669  88.4551 156.2218 1707835 106.0638 273.4527 11.30411103347589
SERT 2                  
1 04327U 70009A   26060.31516191  .00000000  00000+0  56339-4 0  9992
2 04327  99.2747   3.8675 0004723 176.3321 299.6689 13.58729024778758
SL-3 R/B                
1 05118U 71028B   26060.25732545  .00044475  00000+0  53920-3 0  9995
2 05118  81.2331  62.4389 0014524 321.4084  38.6130 15.60308676987350
ASTEX 1                 
1 05560U 71089A   26060.26953827  .00000621  00000+0  15773-3 0  9991
2 05560  92.7133 149.0366 0017800 110.6782 249.6335 14.50759130861083
SL-8 R/B                
1 05730U 71119B   26059.88970639  .00016367  00000+0  84945-3 0  9991
2 05730  73.8864 192.1626 0550482 160.6298 201.6722 14.37570169654228
OAO 3 (COPERNICUS)      
1 06153U 72065A   26059.52380198  .00000425  00000+0  91688-4 0  9999
2 06153  35.0070 349.5364 0005909  85.9707  80.3895 14.59988773844858
